{"type": "FeatureCollection", "features": [ {"type": "Feature", "properties": {"norad_id": 59598, "name": "GSAT0225 (GALILEO 29)", "group": "gnss", "lat": -49.674151414581495, "lon": 50.79843423602456, "alt_km": 23230.482041958276, "timestamp": "2025-12-10T09:57:44.943634+00:00", "meta": {"OBJECT_NAME": "GSAT0225 (GALILEO 29)", "OBJECT_ID": "2024-079A", "EPOCH": "2025-12-07T13:01:48.128160", "MEAN_MOTION": 1.70474573, "ECCENTRICITY": 0.0002046, "INCLINATION": 54.9986, "RA_OF_ASC_NODE": 106.4402, "ARG_OF_PERICENTER": 173.6326, "MEAN_ANOMALY": 155.0404, "EPHEMERIS_TYPE": 0, "CLASSIFICATION_TYPE": "U", "NORAD_CAT_ID": 59598, "ELEMENT_SET_NO": 999, "REV_AT_EPOCH": 1004, "BSTAR": 0, "MEAN_MOTION_DOT": 7e-08, "MEAN_MOTION_DDOT": 0}, "tle": {"line1": "1 59598U 24079A   25341.54291815  .00000007  00000+0  00000+0 0  9993", "line2": "2 59598  54.9986 106.4402 0002046 173.6326 155.0404  1.70474573 10048"}}, "geometry": {"type": "Point", "coordinates": [50.79843423602456, -49.674151414581495]}}, {"type": "Feature", "properties": {"norad_id": 59600, "name": "GSAT0227 (GALILEO 30)", "group": "gnss", "lat": 0.8336056199802114, "lon": -74.23465532928526, "alt_km": 23218.12661038885, "timestamp": "2025-12-10T09:57:44.943645+00:00", "meta": {"OBJECT_NAME": "GSAT0227 (GALILEO 30)", "OBJECT_ID": "2024-079C", "EPOCH": "2025-12-08T22:48:42.234912", "MEAN_MOTION": 1.70474719, "ECCENTRICITY": 0.0003262, "INCLINATION": 54.9946, "RA_OF_ASC_NODE": 106.4003, "ARG_OF_PERICENTER": 114.182, "MEAN_ANOMALY": 245.816, "EPHEMERIS_TYPE": 0, "CLASSIFICATION_TYPE": "U", "NORAD_CAT_ID": 59600, "ELEMENT_SET_NO": 999, "REV_AT_EPOCH": 1012, "BSTAR": 0, "MEAN_MOTION_DOT": 9e-08, "MEAN_MOTION_DDOT": 0}, "tle": {"line1": "1 59600U 24079C   25342.95048883  .00000009  00000+0  00000+0 0  9990", "line2": "2 59600  54.9946 106.4003 0003262 114.1820 245.8160  1.70474719 10123"}}, "geometry": {"type": "Point", "coordinates": [-74.23465532928526, 0.8336056199802114]}}, {"type": "Feature", "properties": {"norad_id": 61182, "name": "GSAT0232 (GALILEO 32)", "group": "gnss", "lat": 10.930442134073573, "lon": -125.79672954112408, "alt_km": 23226.775074767924, "timestamp": "2025-12-10T09:57:44.943656+00:00", "meta": {"OBJECT_NAME": "GSAT0232 (GALILEO 32)", "OBJECT_ID": "2024-167A", "EPOCH": "2025-12-08T22:32:43.317600", "MEAN_MOTION": 1.70473335, "ECCENTRICITY": 0.0002034, "INCLINATION": 55.2421, "RA_OF_ASC_NODE": 226.5351, "ARG_OF_PERICENTER": 212.6306, "MEAN_ANOMALY": 335.1093, "EPHEMERIS_TYPE": 0, "CLASSIFICATION_TYPE": "U", "NORAD_CAT_ID": 61182, "ELEMENT_SET_NO": 999, "REV_AT_EPOCH": 763, "BSTAR": 0, "MEAN_MOTION_DOT": 1.4e-07, "MEAN_MOTION_DDOT": 0}, "tle": {"line1": "1 61182U 24167A   25342.93939025  .00000014  00000+0  00000+0 0  9997", "line2": "2 61182  55.2421 226.5351 0002034 212.6306 335.1093  1.70473335  7635"}}, "geometry": {"type": "Point", "coordinates": [-125.79672954112408, 10.930442134073573]}}, {"type": "Feature", "properties": {"norad_id": 61183, "name": "GSAT0226 (GALILEO 31)", "group": "gnss", "lat": 41.63879204471353, "lon": 8.421731666868984, "alt_km": 23214.86658705948, "timestamp": "2025-12-10T09:57:44.943671+00:00", "meta": {"OBJECT_NAME": "GSAT0226 (GALILEO 31)", "OBJECT_ID": "2024-167B", "EPOCH": "2025-12-09T06:58:53.079168", "MEAN_MOTION": 1.70473461, "ECCENTRICITY": 8.01e-05, "INCLINATION": 55.2404, "RA_OF_ASC_NODE": 226.5307, "ARG_OF_PERICENTER": 119.131, "MEAN_ANOMALY": 36.9899, "EPHEMERIS_TYPE": 0, "CLASSIFICATION_TYPE": "U", "NORAD_CAT_ID": 61183, "ELEMENT_SET_NO": 999, "REV_AT_EPOCH": 761, "BSTAR": 0, "MEAN_MOTION_DOT": 1.2e-07, "MEAN_MOTION_DDOT": 0}, "tle": {"line1": "1 61183U 24167B   25343.29089212  .00000012  00000+0  00000+0 0  9990", "line2": "2 61183  55.2404 226.5307 0000801 119.1310  36.9899  1.70473461  7612"}}, "geometry": {"type": "Point", "coordinates": [8.421731666868984, 41.63879204471353]}}, {"type": "Feature", "properties": {"norad_id": 61186, "name": "BEIDOU-3 M25 (C47)", "group": "gnss", "lat": -19.113923312158715, "lon": -65.45176189877954, "alt_km": 21519.178404718274, "timestamp": "2025-12-10T09:57:44.943683+00:00", "meta": {"OBJECT_NAME": "BEIDOU-3 M25 (C47)", "OBJECT_ID": "2024-168B", "EPOCH": "2025-12-09T12:38:32.089056", "MEAN_MOTION": 1.86229941, "ECCENTRICITY": 0.0005432, "INCLINATION": 54.6447, "RA_OF_ASC_NODE": 308.8306, "ARG_OF_PERICENTER": 296.174, "MEAN_ANOMALY": 164.5169, "EPHEMERIS_TYPE": 0, "CLASSIFICATION_TYPE": "U", "NORAD_CAT_ID": 61186, "ELEMENT_SET_NO": 999, "REV_AT_EPOCH": 825, "BSTAR": 0, "MEAN_MOTION_DOT": -7.8e-07, "MEAN_MOTION_DDOT": 0}, "tle": {"line1": "1 61186U 24168B   25343.52676029 -.00000078  00000+0  00000+0 0  9991", "line2": "2 61186  54.6447 308.8306 0005432 296.1740 164.5169  1.86229941  8254"}}, "geometry": {"type": "Point", "coordinates": [-65.45176189877954, -19.113923312158715]}}, {"type": "Feature", "properties": {"norad_id": 61187, "name": "BEIDOU-3 M27 (C49)", "group": "gnss", "lat": 49.45793431218809, "lon": 72.70658337228704, "alt_km": 21527.047574946122, "timestamp": "2025-12-10T09:57:44.943694+00:00", "meta": {"OBJECT_NAME": "BEIDOU-3 M27 (C49)", "OBJECT_ID": "2024-168C", "EPOCH": "2025-12-09T06:37:59.333088", "MEAN_MOTION": 1.86230065, "ECCENTRICITY": 0.0002332, "INCLINATION": 54.6404, "RA_OF_ASC_NODE": 308.8229, "ARG_OF_PERICENTER": 334.2122, "MEAN_ANOMALY": 93.5537, "EPHEMERIS_TYPE": 0, "CLASSIFICATION_TYPE": "U", "NORAD_CAT_ID": 61187, "ELEMENT_SET_NO": 999, "REV_AT_EPOCH": 572, "BSTAR": 0, "MEAN_MOTION_DOT": -7.6e-07, "MEAN_MOTION_DDOT": 0}, "tle": {"line1": "1 61187U 24168C   25343.27638117 -.00000076  00000+0  00000+0 0  9998", "line2": "2 61187  54.6404 308.8229 0002332 334.2122  93.5537  1.86230065  5724"}}, "geometry": {"type": "Point", "coordinates": [72.70658337228704, 49.45793431218809]}}, {"type": "Feature", "properties": {"norad_id": 62339, "name": "GPS BIII-7  (PRN 01)", "group": "gnss", "lat": 17.957310199631983, "lon": -5.008701500774876, "alt_km": 20154.93849316613, "timestamp": "2025-12-10T09:57:44.943705+00:00", "meta": {"OBJECT_NAME": "GPS BIII-7  (PRN 01)", "OBJECT_ID": "2024-242A", "EPOCH": "2025-12-07T21:14:38.700960", "MEAN_MOTION": 2.00567469, "ECCENTRICITY": 0.00119344, "INCLINATION": 54.9247, "RA_OF_ASC_NODE": 341.9365, "ARG_OF_PERICENTER": 343.8064, "MEAN_ANOMALY": 11.4848, "EPHEMERIS_TYPE": 0, "CLASSIFICATION_TYPE": "U", "NORAD_CAT_ID": 62339, "ELEMENT_SET_NO": 999, "REV_AT_EPOCH": 741, "BSTAR": 0, "MEAN_MOTION_DOT": -8.7e-07, "MEAN_MOTION_DDOT": 0}, "tle": {"line1": "1 62339U 24242A   25341.88517015 -.00000087  00000+0  00000+0 0  9991", "line2": "2 62339  54.9247 341.9365 0011934 343.8064  11.4848  2.00567469  7410"}}, "geometry": {"type": "Point", "coordinates": [-5.008701500774876, 17.957310199631983]}}, {"type": "Feature", "properties": {"norad_id": 62850, "name": "NVS-02 (IRNSS-1K)", "group": "gnss", "lat": -4.308164564666855, "lon": 159.82063306378083, "alt_km": 34496.83039953336, "timestamp": "2025-12-10T09:57:44.943717+00:00", "meta": {"OBJECT_NAME": "NVS-02 (IRNSS-1K)", "OBJECT_ID": "2025-020A", "EPOCH": "2025-12-09T18:58:53.406624", "MEAN_MOTION": 2.1759134, "ECCENTRICITY": 0.7347811, "INCLINATION": 20.9909, "RA_OF_ASC_NODE": 328.7277, "ARG_OF_PERICENTER": 24.3176, "MEAN_ANOMALY": 357.429, "EPHEMERIS_TYPE": 0, "CLASSIFICATION_TYPE": "U", "NORAD_CAT_ID": 62850, "ELEMENT_SET_NO": 999, "REV_AT_EPOCH": 685, "BSTAR": 0.00038525, "MEAN_MOTION_DOT": 2.54e-06, "MEAN_MOTION_DDOT": 0}, "tle": {"line1": "1 62850U 25020A   25343.79089591  .00000254  00000+0  38525-3 0  9991", "line2": "2 62850  20.9909 328.7277 7347811  24.3176 357.4290  2.17591340  6853"}}, "geometry": {"type": "Point", "coordinates": [159.82063306378083, -4.308164564666855]}}, {"type": "Feature", "properties": {"norad_id": 63130, "name": "COSMOS 2584 (704K)", "group": "gnss", "lat": -54.606517912456944, "lon": 38.19639385810859, "alt_km": 19132.51965962977, "timestamp": "2025-12-10T09:57:44.943729+00:00", "meta": {"OBJECT_NAME": "COSMOS 2584 (704K)", "OBJECT_ID": "2025-042A", "EPOCH": "2025-12-08T03:39:29.178720", "MEAN_MOTION": 2.13102925, "ECCENTRICITY": 0.0007602, "INCLINATION": 64.9737, "RA_OF_ASC_NODE": 79.3022, "ARG_OF_PERICENTER": 215.9611, "MEAN_ANOMALY": 144.0025, "EPHEMERIS_TYPE": 0, "CLASSIFICATION_TYPE": "U", "NORAD_CAT_ID": 63130, "ELEMENT_SET_NO": 999, "REV_AT_EPOCH": 597, "BSTAR": 0, "MEAN_MOTION_DOT": -1.2e-07, "MEAN_MOTION_DDOT": 0}, "tle": {"line1": "1 63130U 25042A   25342.15242105 -.00000012  00000+0  00000+0 0  9994", "line2": "2 63130  64.9737  79.3022 0007602 215.9611 144.0025  2.13102925  5976"}}, "geometry": {"type": "Point", "coordinates": [38.19639385810859, -54.606517912456944]}}, {"type": "Feature", "properties": {"norad_id": 64202, "name": "GPS BIII-8  (PRN 21)", "group": "gnss", "lat": -25.43172669314197, "lon": -121.8828599138008, "alt_km": 20187.4656501019, "timestamp": "2025-12-10T09:57:44.943742+00:00", "meta": {"OBJECT_NAME": "GPS BIII-8  (PRN 21)", "OBJECT_ID": "2025-116A", "EPOCH": "2025-12-09T02:55:25.286016", "MEAN_MOTION": 2.00558368, "ECCENTRICITY": 0.00052634, "INCLINATION": 55.1032, "RA_OF_ASC_NODE": 38.7868, "ARG_OF_PERICENTER": 307.5072, "MEAN_ANOMALY": 50.3343, "EPHEMERIS_TYPE": 0, "CLASSIFICATION_TYPE": "U", "NORAD_CAT_ID": 64202, "ELEMENT_SET_NO": 999, "REV_AT_EPOCH": 405, "BSTAR": 0, "MEAN_MOTION_DOT": -8.4e-07, "MEAN_MOTION_DDOT": 0}, "tle": {"line1": "1 64202U 25116A   25343.12182044 -.00000084  00000+0  00000+0 0  9999", "line2": "2 64202  55.1032  38.7868 0005263 307.5072  50.3343  2.00558368  4056"}}, "geometry": {"type": "Point", "coordinates": [-121.8828599138008, -25.43172669314197]}}]}